OBJECT B                
1 59678U 24085B   26063.86106634  .00542292  12101-3  14647-2 0  9991
2 59678  97.3358 155.8430 0009032 298.6065  61.4301 15.94230468102648
RUZAEVKA 390 (RS44S)    
1 61766U 24199AH  26063.81238506  .01230725  87440-3  18457-2 0  9994
2 61766  97.2841 305.7881 0002085 163.9326 196.2021 16.04940616118745
SZ-19 DEB               
1 63801U 24194E   26063.76914326  .00701375  29100-3  50682-3 0  9995
2 63801  41.4589 193.0524 0012585  11.9935 348.1220 16.14780031 48423
COSMOS 2591             
1 65267U 25182A   26063.48576683  .00065052  34647-5  15832-3 0  9997
2 65267  96.5896 356.8341 0006950 170.4176 189.7236 15.96328012 30991
COSMOS 2592             
1 65268U 25182B   26063.68946927  .00004562  18619-5  12419-4 0  9991
2 65268  96.5908 356.9887 0007332 172.3284 187.8108 15.96318498 31027
COSMOS 2593             
1 65269U 25182C   26063.45442567  .00026363  21218-5  64760-4 0  9996
2 65269  96.5891 356.7294 0007746 174.7439 185.3922 15.96384031 30983
COSMOS 2594             
1 65270U 25182D   26063.78352870  .00112112  66589-5  27040-3 0  9998
2 65270  96.5902 357.0225 0007046 167.6404 192.5049 15.96424509 31056
ISS OBJECT XK           
1 65731U 98067XK  26063.30460368  .01169756  80724-3  14637-2 0  9991
2 65731  51.6153  75.0298 0005503  61.4486 298.7081 16.07142396 26033
BOTAN                   
1 65942U 98067XP  26062.30429370  .04760636  12041-4  14503-2 0  9999
2 65942  51.6040  82.5602 0002926  46.9281 313.1984 16.26065139 22592
STARLINK-36618          
1 67847U 26033AC  26063.83336806 -.01153703  40422-3 -28589-2 0  9991
2 67847  42.9848 299.2571 0002235 273.1202 170.1984 15.95016049  3882
STARLINK-36818          
1 67879U 26035A   26063.83336806 -.01018004  33145-3 -22508-2 0  9991
2 67879  97.2773 355.7911 0001145  86.2401 346.3620 15.98023796  2979
STARLINK-36821          
1 67880U 26035B   26063.83336806 -.01024675  33607-3 -22458-2 0  9991
2 67880  97.2768 355.7941 0001064  88.5119 350.6672 15.98183153  2978
STARLINK-36808          
1 67881U 26035C   26063.83336806 -.01043636  34741-3 -22968-2 0  9996
2 67881  97.2769 355.7923 0001399  97.2294 337.8688 15.98110391  2970
STARLINK-36817          
1 67882U 26035D   26063.83336806 -.01037305  34441-3 -22533-2 0  9998
2 67882  97.2760 355.7972 0001144  84.5531   2.5896 15.98346200  2974
STARLINK-36856          
1 67883U 26035E   26063.83336806 -.01019124  33299-3 -22242-2 0  9995
2 67883  97.2765 355.7957 0001156  77.8771   5.5494 15.98258713  2975
